{
  "type": "FeatureCollection",
  "features": [
    {
      "type": "Feature",
      "properties": {
        "norad_id": 30546,
        "name": "FENGYUN 1C DEB",
        "group": "fengyun-1c-debris",
        "lat": 44.40252579196901,
        "lon": 28.2845203697151,
        "alt_km": 551.4831095153795,
        "timestamp": "2025-12-09T18:55:17.508990+00:00",
        "meta_object_name": "FENGYUN 1C DEB",
        "meta_object_id": "1999-025AKL",
        "meta_epoch": "2025-12-09T13:36:26.983872",
        "meta_mean_motion": 14.8707169,
        "meta_eccentricity": 0.00925285,
        "meta_inclination": 98.9083,
        "meta_ra_of_asc_node": 199.2,
        "meta_arg_of_pericenter": 172.5722,
        "meta_mean_anomaly": 218.242,
        "meta_ephemeris_type": 0,
        "meta_classification_type": "U",
        "meta_norad_cat_id": 30546,
        "meta_element_set_no": 999,
        "meta_rev_at_epoch": 410,
        "meta_bstar": 0.0012912656,
        "meta_mean_motion_dot": 0.00012475,
        "meta_mean_motion_ddot": 0,
        "tle_line1": "1 30546U 99025AKL 25343.56697898  .00012475  00000+0  12913-2 0  9994",
        "tle_line2": "2 30546  98.9083 199.2000 0092528 172.5722 218.2420 14.87071690  4107"
      },
      "geometry": {
        "type": "Point",
        "coordinates": [
          28.2845203697151,
          44.40252579196901
        ]
      }
    },
    {
      "type": "Feature",
      "properties": {
        "norad_id": 30547,
        "name": "FENGYUN 1C DEB",
        "group": "fengyun-1c-debris",
        "lat": 13.550881285741774,
        "lon": -175.48530559868092,
        "alt_km": 824.1618863699487,
        "timestamp": "2025-12-09T18:55:17.509000+00:00",
        "meta_object_name": "FENGYUN 1C DEB",
        "meta_object_id": "1999-025AKM",
        "meta_epoch": "2025-12-09T09:24:31.154400",
        "meta_mean_motion": 14.37742103,
        "meta_eccentricity": 0.00950797,
        "meta_inclination": 98.9024,
        "meta_ra_of_asc_node": 186.2693,
        "meta_arg_of_pericenter": 227.3803,
        "meta_mean_anomaly": 255.4725,
        "meta_ephemeris_type": 0,
        "meta_classification_type": "U",
        "meta_norad_cat_id": 30547,
        "meta_element_set_no": 999,
        "meta_rev_at_epoch": 98674,
        "meta_bstar": 0.00052149307,
        "meta_mean_motion_dot": 1.604e-05,
        "meta_mean_motion_ddot": 0,
        "tle_line1": "1 30547U 99025AKM 25343.39202725  .00001604  00000+0  52149-3 0  9995",
        "tle_line2": "2 30547  98.9024 186.2693 0095079 227.3803 255.4725 14.37742103986749"
      },
      "geometry": {
        "type": "Point",
        "coordinates": [
          -175.48530559868092,
          13.550881285741774
        ]
      }
    },
    {
      "type": "Feature",
      "properties": {
        "norad_id": 30548,
        "name": "FENGYUN 1C DEB",
        "group": "fengyun-1c-debris",
        "lat": 23.965200261286057,
        "lon": -123.41278416270465,
        "alt_km": 764.100402379363,
        "timestamp": "2025-12-09T18:55:17.509010+00:00",
        "meta_object_name": "FENGYUN 1C DEB",
        "meta_object_id": "1999-025AKN",
        "meta_epoch": "2025-12-09T12:38:45.253824",
        "meta_mean_motion": 14.26829651,
        "meta_eccentricity": 0.00688055,
        "meta_inclination": 99.6814,
        "meta_ra_of_asc_node": 240.65,
        "meta_arg_of_pericenter": 344.4297,
        "meta_mean_anomaly": 137.0943,
        "meta_ephemeris_type": 0,
        "meta_classification_type": "U",
        "meta_norad_cat_id": 30548,
        "meta_element_set_no": 999,
        "meta_rev_at_epoch": 14049,
        "meta_bstar": 0.0032327032,
        "meta_mean_motion_dot": 7.994e-05,
        "meta_mean_motion_ddot": 0,
        "tle_line1": "1 30548U 99025AKN 25343.52691266  .00007994  00000+0  32327-2 0  9996",
        "tle_line2": "2 30548  99.6814 240.6500 0068805 344.4297 137.0943 14.26829651140495"
      },
      "geometry": {
        "type": "Point",
        "coordinates": [
          -123.41278416270465,
          23.965200261286057
        ]
      }
    },
    {
      "type": "Feature",
      "properties": {
        "norad_id": 30549,
        "name": "FENGYUN 1C DEB",
        "group": "fengyun-1c-debris",
        "lat": 29.82904222630145,
        "lon": -70.65122510800691,
        "alt_km": 982.5202845724334,
        "timestamp": "2025-12-09T18:55:17.509020+00:00",
        "meta_object_name": "FENGYUN 1C DEB",
        "meta_object_id": "1999-025AKP",
        "meta_epoch": "2025-12-03T07:39:14.923872",
        "meta_mean_motion": 13.98584639,
        "meta_eccentricity": 0.0288262,
        "meta_inclination": 98.4796,
        "meta_ra_of_asc_node": 98.4482,
        "meta_arg_of_pericenter": 283.4344,
        "meta_mean_anomaly": 73.4847,
        "meta_ephemeris_type": 0,
        "meta_classification_type": "U",
        "meta_norad_cat_id": 30549,
        "meta_element_set_no": 999,
        "meta_rev_at_epoch": 95162,
        "meta_bstar": 0.0024216,
        "meta_mean_motion_dot": 4.917e-05,
        "meta_mean_motion_ddot": 0,
        "tle_line1": "1 30549U 99025AKP 25337.31892273  .00004917  00000+0  24216-2 0  9998",
        "tle_line2": "2 30549  98.4796  98.4482 0288262 283.4344  73.4847 13.98584639951629"
      },
      "geometry": {
        "type": "Point",
        "coordinates": [
          -70.65122510800691,
          29.82904222630145
        ]
      }
    },
    {
      "type": "Feature",
      "properties": {
        "norad_id": 30550,
        "name": "FENGYUN 1C DEB",
        "group": "fengyun-1c-debris",
        "lat": -80.69037470030824,
        "lon": -44.35360556571811,
        "alt_km": 811.7081546230966,
        "timestamp": "2025-12-09T18:55:17.509030+00:00",
        "meta_object_name": "FENGYUN 1C DEB",
        "meta_object_id": "1999-025AKQ",
        "meta_epoch": "2025-12-09T11:38:59.399808",
        "meta_mean_motion": 14.02348674,
        "meta_eccentricity": 0.01331679,
        "meta_inclination": 99.0528,
        "meta_ra_of_asc_node": 238.8009,
        "meta_arg_of_pericenter": 306.2736,
        "meta_mean_anomaly": 237.9374,
        "meta_ephemeris_type": 0,
        "meta_classification_type": "U",
        "meta_norad_cat_id": 30550,
        "meta_element_set_no": 999,
        "meta_rev_at_epoch": 95349,
        "meta_bstar": 0.0044165795,
        "meta_mean_motion_dot": 7.287e-05,
        "meta_mean_motion_ddot": 0,
        "tle_line1": "1 30550U 99025AKQ 25343.48540972  .00007287  00000+0  44166-2 0  9990",
        "tle_line2": "2 30550  99.0528 238.8009 0133167 306.2736 237.9374 14.02348674953490"
      },
      "geometry": {
        "type": "Point",
        "coordinates": [
          -44.35360556571811,
          -80.69037470030824
        ]
      }
    },
    {
      "type": "Feature",
      "properties": {
        "norad_id": 30552,
        "name": "FENGYUN 1C DEB",
        "group": "fengyun-1c-debris",
        "lat": 80.62852045767026,
        "lon": 44.812543878486885,
        "alt_km": 713.3011581907622,
        "timestamp": "2025-12-09T18:55:17.509040+00:00",
        "meta_object_name": "FENGYUN 1C DEB",
        "meta_object_id": "1999-025AKS",
        "meta_epoch": "2025-12-09T06:58:00.357024",
        "meta_mean_motion": 14.54619199,
        "meta_eccentricity": 0.00145,
        "meta_inclination": 98.8357,
        "meta_ra_of_asc_node": 114.763,
        "meta_arg_of_pericenter": 261.6134,
        "meta_mean_anomaly": 98.3418,
        "meta_ephemeris_type": 0,
        "meta_classification_type": "U",
        "meta_norad_cat_id": 30552,
        "meta_element_set_no": 999,
        "meta_rev_at_epoch": 97602,
        "meta_bstar": 0.0048141,
        "meta_mean_motion_dot": 0.00020602,
        "meta_mean_motion_ddot": 0,
        "tle_line1": "1 30552U 99025AKS 25343.29028191  .00020602  00000+0  48141-2 0  9998",
        "tle_line2": "2 30552  98.8357 114.7630 0014500 261.6134  98.3418 14.54619199976028"
      },
      "geometry": {
        "type": "Point",
        "coordinates": [
          44.812543878486885,
          80.62852045767026
        ]
      }
    },
    {
      "type": "Feature",
      "properties": {
        "norad_id": 30553,
        "name": "FENGYUN 1C DEB",
        "group": "fengyun-1c-debris",
        "lat": -41.40867314400527,
        "lon": 86.47199178649247,
        "alt_km": 674.8707630698045,
        "timestamp": "2025-12-09T18:55:17.509050+00:00",
        "meta_object_name": "FENGYUN 1C DEB",
        "meta_object_id": "1999-025AKT",
        "meta_epoch": "2025-12-09T04:25:51.458304",
        "meta_mean_motion": 14.72029096,
        "meta_eccentricity": 0.00211637,
        "meta_inclination": 99.1288,
        "meta_ra_of_asc_node": 77.6427,
        "meta_arg_of_pericenter": 161.6474,
        "meta_mean_anomaly": 198.5498,
        "meta_ephemeris_type": 0,
        "meta_classification_type": "U",
        "meta_norad_cat_id": 30553,
        "meta_element_set_no": 999,
        "meta_rev_at_epoch": 98421,
        "meta_bstar": 0.0040962031,
        "meta_mean_motion_dot": 0.00025852,
        "meta_mean_motion_ddot": 0,
        "tle_line1": "1 30553U 99025AKT 25343.18462336  .00025852  00000+0  40962-2 0  9995",
        "tle_line2": "2 30553  99.1288  77.6427 0021163 161.6474 198.5498 14.72029096984218"
      },
      "geometry": {
        "type": "Point",
        "coordinates": [
          86.47199178649247,
          -41.40867314400527
        ]
      }
    }
  ]
}